[{"OBJECT_NAME":"STARLINK-5896","OBJECT_ID":"2023-037S","EPOCH":"2026-03-09T23:17:26.832480","MEAN_MOTION":14.98332887,"ECCENTRICITY":0.00026752,"INCLINATION":70.0007,"RA_OF_ASC_NODE":283.6953,"ARG_OF_PERICENTER":261.1258,"MEAN_ANOMALY":98.9598,"EPHEMERIS_TYPE":0,"CLASSIFICATION_TYPE":"U","NORAD_CAT_ID":55930,"ELEMENT_SET_NO":999,"REV_AT_EPOCH":16402,"BSTAR":0.00045394932,"MEAN_MOTION_DOT":5.328e-5,"MEAN_MOTION_DDOT":0},{"OBJECT_NAME":"CZ-2D DEB","OBJECT_ID":"2017-060B","EPOCH":"2026-03-09T14:15:36.855648","MEAN_MOTION":14.99543568,"ECCENTRICITY":0.002893,"INCLINATION":97.5408,"RA_OF_ASC_NODE":90.0945,"ARG_OF_PERICENTER":284.1616,"MEAN_ANOMALY":75.6394,"EPHEMERIS_TYPE":0,"CLASSIFICATION_TYPE":"U","NORAD_CAT_ID":44609,"ELEMENT_SET_NO":999,"REV_AT_EPOCH":45025,"BSTAR":0.00057261,"MEAN_MOTION_DOT":7.042e-5,"MEAN_MOTION_DDOT":0}]
